0 FENGYUN 1C DEB
1 37006U 99025ECN 13282.34595178  .00002857  00000-0  66575-3 0  2008
2 37006 099.3698 103.2093 0323386 207.7225 150.6387 14.28353833207740
0 FENGYUN 1C DEB
1 37006U 99025ECN 13285.35818533  .00003071  00000-0  71455-3 0  2029
2 37006 099.3706 106.4450 0323197 199.0710 159.8138 14.28365112208170
0 FENGYUN 1C DEB
1 37006U 99025ECN 13289.35109612  .00003984  00000-0  92123-3 0  2033
2 37006 099.3694 110.7395 0323279 187.6115 172.0092 14.28391523208749
0 FENGYUN 1C DEB
1 37006U 99025ECN 13291.31249946  .00003502  00000-0  81076-3 0  2049
2 37006 099.3692 112.8498 0323430 182.0063 177.9842 14.28405420209025
0 FENGYUN 1C DEB
1 37006U 99025ECN 13295.30529780  .00004123  00000-0  95140-3 0  2057
2 37006 099.3703 117.1442 0323320 170.5906 190.1533 14.28432671209595
